{"type": "FeatureCollection", "features": [{"type": "Feature", "properties": {"municipio": "Vigo", "subzona": "R-1", "altura_maxima_m": 12, "retranqueo_min_m": 3, "ocupacion_max": 0.5, "edificabilidad_max_m2_m2": 1.25, "fuente": "PXOM Vigo (piloto)", "normative_status": "pilot"}, "geometry": {"type": "Polygon", "coordinates": [[[-8.73, 42.23], [-8.71, 42.23], [-8.71, 42.24], [-8.73, 42.24], [-8.73, 42.23]]]}}, {"type": "Feature", "properties": {"municipio": "Vigo", "subzona": "R-2", "altura_maxima_m": 15, "retranqueo_min_m": 3, "ocupacion_max": 0.4, "edificabilidad_max_m2_m2": 1.2, "fuente": "PXOM Vigo (piloto)", "normative_status": "pilot"}, "geometry": {"type": "Polygon", "coordinates": [[[-8.71, 42.23], [-8.69, 42.23], [-8.69, 42.24], [-8.71, 42.24], [-8.71, 42.23]]]}}, {"type": "Feature", "properties": {"municipio": "Vigo", "subzona": "R-3", "altura_maxima_m": 10, "retranqueo_min_m": 3, "ocupacion_max": 0.6, "edificabilidad_max_m2_m2": 0.9, "fuente": "PXOM Vigo (piloto)", "normative_status": "pilot"}, "geometry": {"type": "Polygon", "coordinates": [[[-8.73, 42.24], [-8.71, 42.24], [-8.71, 42.25], [-8.73, 42.25], [-8.73, 42.24]]]}}, {"type": "Feature", "properties": {"municipio": "A Coruna", "subzona": "UC-1", "altura_maxima_m": 13.5, "retranqueo_min_m": 3, "ocupacion_max": 0.45, "edificabilidad_max_m2_m2": 1.1, "fuente": "PXOM A Coruna (piloto)", "normative_status": "pilot"}, "geometry": {"type": "Polygon", "coordinates": [[[-8.41, 43.36], [-8.39, 43.36], [-8.39, 43.38], [-8.41, 43.38], [-8.41, 43.36]]]}}, {"type": "Feature", "properties": {"municipio": "A Coruna", "subzona": "UC-2", "altura_maxima_m": 10, "retranqueo_min_m": 3, "ocupacion_max": 0.5, "edificabilidad_max_m2_m2": 0.8, "fuente": "PXOM A Coruna (piloto)", "normative_status": "pilot"}, "geometry": {"type": "Polygon", "coordinates": [[[-8.39, 43.36], [-8.37, 43.36], [-8.37, 43.38], [-8.39, 43.38], [-8.39, 43.36]]]}}, {"type": "Feature", "properties": {"municipio": "Santiago", "subzona": "Residencial General", "altura_maxima_m": 12, "retranqueo_min_m": 3, "ocupacion_max": 0.35, "edificabilidad_max_m2_m2": 0.9, "fuente": "PXOM Santiago (piloto)", "normative_status": "pilot"}, "geometry": {"type": "Polygon", "coordinates": [[[-8.55, 42.87], [-8.53, 42.87], [-8.53, 42.89], [-8.55, 42.89], [-8.55, 42.87]]]}}]}